[{"CCSDS_OMM_VERS":"3.0","COMMENT":"GENERATED VIA SPACE-TRACK.ORG API","CREATION_DATE":"2026-06-07T03:17:11","ORIGINATOR":"18 SPCS","OBJECT_NAME":"BEIDOU 3M12","OBJECT_ID":"2018-067B","CENTER_NAME":"EARTH","REF_FRAME":"TEME","TIME_SYSTEM":"UTC","MEAN_ELEMENT_THEORY":"SGP4","EPOCH":"2026-06-06T20:12:12.937824","MEAN_MOTION":"1.86227393","ECCENTRICITY":"0.00044784","INCLINATION":"54.1771","RA_OF_ASC_NODE":"181.3547","ARG_OF_PERICENTER":"14.0942","MEAN_ANOMALY":"345.9708","EPHEMERIS_TYPE":"0","CLASSIFICATION_TYPE":"U","NORAD_CAT_ID":"43603","ELEMENT_SET_NO":"999","REV_AT_EPOCH":"5295","BSTAR":"0.00000000000000","MEAN_MOTION_DOT":"0.00000093","MEAN_MOTION_DDOT":"0.0000000000000","SEMIMAJOR_AXIS":"27906.549","PERIOD":"773.248","APOAPSIS":"21540.911","PERIAPSIS":"21515.916","OBJECT_TYPE":"PAYLOAD","RCS_SIZE":"LARGE","COUNTRY_CODE":"PRC","LAUNCH_DATE":"2018-08-24","SITE":"XSC","DECAY_DATE":null,"FILE":"5234182","GP_ID":"327690130","TLE_LINE0":"0 BEIDOU 3M12","TLE_LINE1":"1 43603U 18067B   26157.84181641  .00000093  00000-0  00000-0 0  9994","TLE_LINE2":"2 43603  54.1771 181.3547 0004478  14.0942 345.9708  1.86227393 52953"},{"CCSDS_OMM_VERS":"3.0","COMMENT":"GENERATED VIA SPACE-TRACK.ORG API","CREATION_DATE":"2026-06-06T22:36:27","ORIGINATOR":"18 SPCS","OBJECT_NAME":"BEIDOU 3M12","OBJECT_ID":"2018-067B","CENTER_NAME":"EARTH","REF_FRAME":"TEME","TIME_SYSTEM":"UTC","MEAN_ELEMENT_THEORY":"SGP4","EPOCH":"2026-06-06T20:12:12.937824","MEAN_MOTION":"1.86227393","ECCENTRICITY":"0.00044780","INCLINATION":"54.1771","RA_OF_ASC_NODE":"181.3547","ARG_OF_PERICENTER":"14.0942","MEAN_ANOMALY":"345.9708","EPHEMERIS_TYPE":"0","CLASSIFICATION_TYPE":"U","NORAD_CAT_ID":"43603","ELEMENT_SET_NO":"999","REV_AT_EPOCH":"5295","BSTAR":"0.00000000000000","MEAN_MOTION_DOT":"0.00000093","MEAN_MOTION_DDOT":"0.0000000000000","SEMIMAJOR_AXIS":"27906.549","PERIOD":"773.248","APOAPSIS":"21540.910","PERIAPSIS":"21515.917","OBJECT_TYPE":"PAYLOAD","RCS_SIZE":"LARGE","COUNTRY_CODE":"PRC","LAUNCH_DATE":"2018-08-24","SITE":"XSC","DECAY_DATE":null,"FILE":"5233689","GP_ID":"327628057","TLE_LINE0":"0 BEIDOU 3M12","TLE_LINE1":"1 43603U 18067B   26157.84181641  .00000093  00000-0  00000+0 0  9993","TLE_LINE2":"2 43603  54.1771 181.3547 0004478  14.0942 345.9708  1.86227393 52953"},{"CCSDS_OMM_VERS":"3.0","COMMENT":"GENERATED VIA SPACE-TRACK.ORG API","CREATION_DATE":"2026-06-11T11:04:42","ORIGINATOR":"18 SPCS","OBJECT_NAME":"BEIDOU 3M12","OBJECT_ID":"2018-067B","CENTER_NAME":"EARTH","REF_FRAME":"TEME","TIME_SYSTEM":"UTC","MEAN_ELEMENT_THEORY":"SGP4","EPOCH":"2026-06-11T03:18:00.817344","MEAN_MOTION":"1.86227390","ECCENTRICITY":"0.00044699","INCLINATION":"54.1774","RA_OF_ASC_NODE":"181.2091","ARG_OF_PERICENTER":"14.3139","MEAN_ANOMALY":"345.7605","EPHEMERIS_TYPE":"0","CLASSIFICATION_TYPE":"U","NORAD_CAT_ID":"43603","ELEMENT_SET_NO":"999","REV_AT_EPOCH":"5303","BSTAR":"0.00000000000000","MEAN_MOTION_DOT":"0.00000129","MEAN_MOTION_DDOT":"0.0000000000000","SEMIMAJOR_AXIS":"27906.549","PERIOD":"773.248","APOAPSIS":"21540.888","PERIAPSIS":"21515.940","OBJECT_TYPE":"PAYLOAD","RCS_SIZE":"LARGE","COUNTRY_CODE":"PRC","LAUNCH_DATE":"2018-08-24","SITE":"XSC","DECAY_DATE":null,"FILE":"5241797","GP_ID":"328697700","TLE_LINE0":"0 BEIDOU 3M12","TLE_LINE1":"1 43603U 18067B   26162.13750946  .00000129  00000-0  00000-0 0  9992","TLE_LINE2":"2 43603  54.1774 181.2091 0004470  14.3139 345.7605  1.86227390 53033"},{"CCSDS_OMM_VERS":"3.0","COMMENT":"GENERATED VIA SPACE-TRACK.ORG API","CREATION_DATE":"2026-06-12T12:00:27","ORIGINATOR":"18 SPCS","OBJECT_NAME":"BEIDOU 3M12","OBJECT_ID":"2018-067B","CENTER_NAME":"EARTH","REF_FRAME":"TEME","TIME_SYSTEM":"UTC","MEAN_ELEMENT_THEORY":"SGP4","EPOCH":"2026-06-12T05:04:27.641856","MEAN_MOTION":"1.86227280","ECCENTRICITY":"0.00044320","INCLINATION":"54.1774","RA_OF_ASC_NODE":"181.1727","ARG_OF_PERICENTER":"13.7995","MEAN_ANOMALY":"346.2737","EPHEMERIS_TYPE":"0","CLASSIFICATION_TYPE":"U","NORAD_CAT_ID":"43603","ELEMENT_SET_NO":"999","REV_AT_EPOCH":"5305","BSTAR":"0.00000000000000","MEAN_MOTION_DOT":"0.00000126","MEAN_MOTION_DDOT":"0.0000000000000","SEMIMAJOR_AXIS":"27906.560","PERIOD":"773.249","APOAPSIS":"21540.793","PERIAPSIS":"21516.057","OBJECT_TYPE":"PAYLOAD","RCS_SIZE":"LARGE","COUNTRY_CODE":"PRC","LAUNCH_DATE":"2018-08-24","SITE":"XSC","DECAY_DATE":null,"FILE":"5242965","GP_ID":"328905127","TLE_LINE0":"0 BEIDOU 3M12","TLE_LINE1":"1 43603U 18067B   26163.21143104  .00000126  00000-0  00000-0 0  9991","TLE_LINE2":"2 43603  54.1774 181.1727 0004432  13.7995 346.2737  1.86227280 53051"},{"CCSDS_OMM_VERS":"3.0","COMMENT":"GENERATED VIA SPACE-TRACK.ORG API","CREATION_DATE":"2026-06-13T10:14:27","ORIGINATOR":"18 SPCS","OBJECT_NAME":"BEIDOU 3M12","OBJECT_ID":"2018-067B","CENTER_NAME":"EARTH","REF_FRAME":"TEME","TIME_SYSTEM":"UTC","MEAN_ELEMENT_THEORY":"SGP4","EPOCH":"2026-06-12T17:57:40.946976","MEAN_MOTION":"1.86227237","ECCENTRICITY":"0.00044261","INCLINATION":"54.1775","RA_OF_ASC_NODE":"181.1545","ARG_OF_PERICENTER":"13.3821","MEAN_ANOMALY":"346.6892","EPHEMERIS_TYPE":"0","CLASSIFICATION_TYPE":"U","NORAD_CAT_ID":"43603","ELEMENT_SET_NO":"999","REV_AT_EPOCH":"5306","BSTAR":"0.00000000000000","MEAN_MOTION_DOT":"0.00000121","MEAN_MOTION_DDOT":"0.0000000000000","SEMIMAJOR_AXIS":"27906.565","PERIOD":"773.249","APOAPSIS":"21540.781","PERIAPSIS":"21516.078","OBJECT_TYPE":"PAYLOAD","RCS_SIZE":"LARGE","COUNTRY_CODE":"PRC","LAUNCH_DATE":"2018-08-24","SITE":"XSC","DECAY_DATE":null,"FILE":"5243522","GP_ID":"328983015","TLE_LINE0":"0 BEIDOU 3M12","TLE_LINE1":"1 43603U 18067B   26163.74839059  .00000121  00000-0  00000-0 0  9995","TLE_LINE2":"2 43603  54.1775 181.1545 0004426  13.3821 346.6892  1.86227237 53066"},{"CCSDS_OMM_VERS":"3.0","COMMENT":"GENERATED VIA SPACE-TRACK.ORG API","CREATION_DATE":"2026-06-12T23:16:46","ORIGINATOR":"18 SPCS","OBJECT_NAME":"BEIDOU 3M12","OBJECT_ID":"2018-067B","CENTER_NAME":"EARTH","REF_FRAME":"TEME","TIME_SYSTEM":"UTC","MEAN_ELEMENT_THEORY":"SGP4","EPOCH":"2026-06-12T17:57:40.946976","MEAN_MOTION":"1.86227237","ECCENTRICITY":"0.00044260","INCLINATION":"54.1775","RA_OF_ASC_NODE":"181.1545","ARG_OF_PERICENTER":"13.3821","MEAN_ANOMALY":"346.6892","EPHEMERIS_TYPE":"0","CLASSIFICATION_TYPE":"U","NORAD_CAT_ID":"43603","ELEMENT_SET_NO":"999","REV_AT_EPOCH":"5306","BSTAR":"0.00000000000000","MEAN_MOTION_DOT":"0.00000121","MEAN_MOTION_DDOT":"0.0000000000000","SEMIMAJOR_AXIS":"27906.564","PERIOD":"773.249","APOAPSIS":"21540.781","PERIAPSIS":"21516.078","OBJECT_TYPE":"PAYLOAD","RCS_SIZE":"LARGE","COUNTRY_CODE":"PRC","LAUNCH_DATE":"2018-08-24","SITE":"XSC","DECAY_DATE":null,"FILE":"5243243","GP_ID":"328949531","TLE_LINE0":"0 BEIDOU 3M12","TLE_LINE1":"1 43603U 18067B   26163.74839059  .00000121  00000-0  00000+0 0  9994","TLE_LINE2":"2 43603  54.1775 181.1545 0004426  13.3821 346.6892  1.86227237 53066"},{"CCSDS_OMM_VERS":"3.0","COMMENT":"GENERATED VIA SPACE-TRACK.ORG API","CREATION_DATE":"2026-06-13T17:55:43","ORIGINATOR":"18 SPCS","OBJECT_NAME":"BEIDOU 3M12","OBJECT_ID":"2018-067B","CENTER_NAME":"EARTH","REF_FRAME":"TEME","TIME_SYSTEM":"UTC","MEAN_ELEMENT_THEORY":"SGP4","EPOCH":"2026-06-13T06:50:54.095712","MEAN_MOTION":"1.86227214","ECCENTRICITY":"0.00044328","INCLINATION":"54.1775","RA_OF_ASC_NODE":"181.1364","ARG_OF_PERICENTER":"13.2229","MEAN_ANOMALY":"346.8460","EPHEMERIS_TYPE":"0","CLASSIFICATION_TYPE":"U","NORAD_CAT_ID":"43603","ELEMENT_SET_NO":"999","REV_AT_EPOCH":"5307","BSTAR":"0.00000000000000","MEAN_MOTION_DOT":"0.00000115","MEAN_MOTION_DDOT":"0.0000000000000","SEMIMAJOR_AXIS":"27906.567","PERIOD":"773.249","APOAPSIS":"21540.802","PERIAPSIS":"21516.061","OBJECT_TYPE":"PAYLOAD","RCS_SIZE":"LARGE","COUNTRY_CODE":"PRC","LAUNCH_DATE":"2018-08-24","SITE":"XSC","DECAY_DATE":null,"FILE":"5244319","GP_ID":"329094064","TLE_LINE0":"0 BEIDOU 3M12","TLE_LINE1":"1 43603U 18067B   26164.28534833  .00000115  00000-0  00000-0 0  9990","TLE_LINE2":"2 43603  54.1775 181.1364 0004433  13.2229 346.8460  1.86227214 53073"},{"CCSDS_OMM_VERS":"3.0","COMMENT":"GENERATED VIA SPACE-TRACK.ORG API","CREATION_DATE":"2026-06-13T16:36:38","ORIGINATOR":"18 SPCS","OBJECT_NAME":"BEIDOU 3M12","OBJECT_ID":"2018-067B","CENTER_NAME":"EARTH","REF_FRAME":"TEME","TIME_SYSTEM":"UTC","MEAN_ELEMENT_THEORY":"SGP4","EPOCH":"2026-06-13T06:50:54.095712","MEAN_MOTION":"1.86227214","ECCENTRICITY":"0.00044330","INCLINATION":"54.1775","RA_OF_ASC_NODE":"181.1364","ARG_OF_PERICENTER":"13.2229","MEAN_ANOMALY":"346.8460","EPHEMERIS_TYPE":"0","CLASSIFICATION_TYPE":"U","NORAD_CAT_ID":"43603","ELEMENT_SET_NO":"999","REV_AT_EPOCH":"5307","BSTAR":"0.00000000000000","MEAN_MOTION_DOT":"0.00000115","MEAN_MOTION_DDOT":"0.0000000000000","SEMIMAJOR_AXIS":"27906.567","PERIOD":"773.249","APOAPSIS":"21540.803","PERIAPSIS":"21516.061","OBJECT_TYPE":"PAYLOAD","RCS_SIZE":"LARGE","COUNTRY_CODE":"PRC","LAUNCH_DATE":"2018-08-24","SITE":"XSC","DECAY_DATE":null,"FILE":"5243762","GP_ID":"329023995","TLE_LINE0":"0 BEIDOU 3M12","TLE_LINE1":"1 43603U 18067B   26164.28534833  .00000115  00000-0  00000+0 0  9999","TLE_LINE2":"2 43603  54.1775 181.1364 0004433  13.2229 346.8460  1.86227214 53073"}]